RecyclerID,Company Name,Info,Status,Type,Address,District,State
223,ADV METAL COMBINE PVT. LTD.,Recycler,Pending at applicant,Authorization,SHED 25 BIGC RASMADA  DURG Durg,Durg,CHHATTISGARH
1650763,A K M RECYCLERS,Recycler,Pending at applicant,Authorization,"WARE HOUSE NO.467/1,S.NO.180/12/1 VILLAGE DHANSAR PANVEL Raigarh(MH)",Raigarh(MH),MAHARASHTRA
9681,ALFA TRADING COMPANY,Recycler,Pending at applicant,Authorization,"Mohd Estate, Pimpri Dahisar Mori, Mumbra Panvel Road Thane Thane",Thane,MAHARASHTRA
246,Anubahv e-waste recycler india llp,Recycler,Pending at applicant,Authorization,f-44 upsida industrial area kosi kotwan ext-1 mathura Mathura,Mathura,UTTAR PRADESH
33995,Arlington Information Systems Pvt Ltd,Recycler,Pending at applicant,Authorization,"C-13, Site IV Sahibabad Industrial Area Ghaziabad Ghaziabad",Ghaziabad,UTTAR PRADESH
2707222,ARP RECYCLING PRIVATE LIMITED,Recycler,Pending at applicant,Authorization,"KHASRA NO.399, RELIANCE ROAD PANCHSHEEL NAGAR HAPUR Hapur",Hapur,UTTAR PRADESH
526563,Ash Recyclers,Recycler,Pending at applicant,Authorization,Unit 2 B-3 KSSIDC Industrial Estate Hosakote Bangalore,Bangalore,KARNATAKA
5088,BHARAT OIL AND WASTE MANAGEMENT LTD.,Recycler,Pending at applicant,Authorization,"Bharat Oil &amp; Waste Management Limited Mauza Mukimpur, Roorkee Lakshar Road Roorkee Haridwar",Haridwar,UTTARAKHAND
5267,BHARAT OIL COMPANY (I) REGD.,Recycler,Pending at applicant,Authorization,"BHARAT OIL COMPANY (INDIA) REGD. E-18, Site-IV, Sahibabad Industrial Area, Ghaziabad Ghaziabad",Ghaziabad,UTTAR PRADESH
14694,BLACK DIAMOND CEMENTS PRIVATE LIMITED,Recycler,Pending at applicant,Authorization,"Vill- Humainpur, Naraingarh Road Lalru SAS Nagar, Punjab Mohali Mohali",Mohali,PUNJAB
2686709,"Circularity Solutions Pvt Ltd, Nashik",Recycler,Pending at applicant,Authorization,Gut No 21/1 Sarul Nashik Nashik,Nashik,MAHARASHTRA
27214,COMNET E WASTE LLP,Recycler,Pending at applicant,Authorization,Gat No 410 Hajare Wasti Kaudgaon Tal Dist Ahmednagar 414002 Ahmednagar Ahmed Nagar,Ahmed Nagar,MAHARASHTRA
9735,DRON E WASTE SOLUTION,Recycler,Pending at applicant,Authorization,"Plot No. 56, GIDC Gozariya  Gozariya Mahesana",Mahesana,GUJARAT
236,ECO GREEN RECYCLING,Recycler,Pending at applicant,Authorization,"PLOT N0.4, NEAR DYNAMIC TEXTILE OZAR ROAD, MOTA PONDHA VALSAD Valsad",Valsad,GUJARAT
5355,ELGREEN RECYCLING PRIVATE LIMITED,Recycler,Pending at applicant,Authorization,"Plot no. G 33, Sector 63, Industrial Area, Noida, Uttar Pradesh, GAUTAM BUDHNAGAR, 201301  Plot no G 33 Sector 63 Industrial Area Noida Uttar Pradesh GAUTAM BUDHNAGAR 201301 Gautam Buddha Nagar",Gautam Buddha Nagar,UTTAR PRADESH
90423,Enviropro Sustainability Private Limited,Recycler,Pending at applicant,Authorization,"Sy No 159U, No-8-155AA/A1, Kothur(V), Kothur(M Rangareddy District Rangareddy K.V.Rangareddy",K.V.Rangareddy,TELANGANA
577983,Epragathi Recycle Private Limited,Recycler,Pending at applicant,Authorization,"No.F 29,SKS Industrial Area,Sri MadhopurTehsil,Sikar,Jaipur, Rajasthan332404  Ringus Sikar",Sikar,RAJASTHAN
2873460,E TREE TECHNOLOGIES,Recycler,Pending at applicant,Authorization,"PLOT NO. S-65/1, SY.NO.76/P & 77/P, E CITY, MAHESHWARAM RANGA REDDY DISTRICT HYDERABAD K.V.Rangareddy",K.V.Rangareddy,TELANGANA
7576,Evergreen e waste Management Pvt Ltd,Recycler,Pending at applicant,Authorization,plot 30 Kamla Amrut Industrial Park Budasan Budasan Kalol Mahesana,Mahesana,GUJARAT
8645,EVER GREEN EWASTE RECYCLING MANAGEMENT,Recycler,Pending at applicant,Authorization,"C/o Hasmat Ali, Rampur Mathura, Mehmodabad Sitapur Sitapur",Sitapur,UTTAR PRADESH
159,Eximo Recycling Pvt Ltd,Recycler,Pending at applicant,Authorization,"5/3 Raj Industrial Park, Jarod Samlaya Road Village Vadadala Taluka Savli Vadodara Vadodara",Vadodara,GUJARAT
6559,EXSTRAT,Recycler,Pending at applicant,Authorization,No 14 Attibele Industrial Area Attibele Hobli Bengaluru Bangalore,Bangalore,KARNATAKA
1959293,FS INDIA SOLAR VENTURES PRIVATE LIMITED,Recycler,Pending at applicant,Authorization,"Plot No.A-1/1, SIPCOT Industrial Park, Pillaipakkam, Kanchipuram, Tamil Nadu, 602105  Kanchipuram Kanchipuram",Kanchipuram,TAMIL NADU
16008,GLACIER WASTE MANAGEMENT LLP,Recycler,Pending at applicant,Authorization,B-49 MIDC Vita Karve vita 415311 Vita Sangli,Sangli,MAHARASHTRA
292,GLOBAL INTERNATIONAL,Recycler,Pending at applicant,Authorization,VILLAGE & P.O LAKSHMANPUR P.S DOMJUR  Howrah Howrah,Howrah,WEST BENGAL
1279815,GLOBAL TRADERS,Recycler,Pending at applicant,Authorization,"VILLAGE RAHKADA POST BHOPA, BLOCK MORNA VILLAGE RAHKADA POST BHOPA, BLOCK MORNA MUZAFFARNAGAR Muzaffarnagar",Muzaffarnagar,UTTAR PRADESH
669531,GNR RECYCLING INDIA PRIVATE LIMITED,Recycler,Pending at applicant,Authorization,"598,599,593, Gera Junction, Kondhwa Road, Lullanagar  Pune Pune",Pune,MAHARASHTRA
1358473,GOGREEN RECYCLING,Recycler,Pending at applicant,Authorization,"Unit No. 75/66, Hasti Industrial Estate, TTC INDUSTRIAL AREA MIDC MAHAPE SHILPHATA ROAD MAHAPE NAVI MUMBAI THANE MAHARASHTRA MAHAPE Thane",Thane,MAHARASHTRA
31544,Gracy Eco Traders,Recycler,Pending at applicant,Authorization,"Plot No 106, Sidco Industrial Estate Vichoor, Manali New Town, Ponneri Chennai Tiruvallur",Tiruvallur,TAMIL NADU
8853,Green Enviro Management Solutions LLP,Recycler,Pending at applicant,Authorization,Plot No 51 Gat No 376 Kanhe Phatta Tal Maval Pune Pune,Pune,MAHARASHTRA
2269764,GREENGLOBAL RECYCLING PRIVATELIMITED,Recycler,Pending at applicant,Authorization,"Plot no-33,Shed no-9, Hindupur Thumukunta Industrial Area Hindupur Ananthapur",Ananthapur,ANDHRA PRADESH
8822,GREEN TECH RECYCLING,Recycler,Pending at applicant,Authorization,Plot No 5 and 6 Maharaja Estate Behind Anand Hotel Sarkhej Sanand Road  Ahmedabad Ahmedabad Ahmedabad,Ahmedabad,GUJARAT
1100731,GREEN VALLEY RECYCLING PRIVATE LIMITED,Recycler,Pending at applicant,Authorization,"KHASRA NO-371 AND 372 INDUSTRIAL AREA BEGRAJPUR, HUSAINPUR BOPARA MUZAFFARNAGAR  MUZAFFARNAGAR Muzaffarnagar",Muzaffarnagar,UTTAR PRADESH
16821,GREENWISH E WASTE RECYCLERS,Recycler,Pending at applicant,Authorization,"F-162, INDUSTRIAL AREA, KOSI KOTWAN EXTN-1, KOSI KALAN, MATHURA, Mathura, Uttar Pradesh, 281403 MATHURA Mathura",Mathura,UTTAR PRADESH
537387,Hal Solution Private Limited,Recycler,Pending at applicant,Authorization,"K-58, Site 5 Kasna, UPSIDC Greater Noida Gautam Buddha Nagar",Gautam Buddha Nagar,UTTAR PRADESH
8903,Haq Processing Private Limited,Recycler,Pending at applicant,Authorization,Gala No. C6 Datar Industrial Estate Avdhoot Bhagwan Ram Seva Ashram Pelhar Nalasopara Vasai Virar Palghar Palghar Thane,Thane,MAHARASHTRA
691348,Hi Tech Scrap Processors,Recycler,Pending at applicant,Authorization,"G-79, Panki Industrial Area Site 3 Kanpur Kanpur Nagar",Kanpur Nagar,UTTAR PRADESH
8881,I D Technocom,Recycler,Pending at applicant,Authorization,194/1 sector-6/b GANDHINAGAR Gandhi Nagar,Gandhi Nagar,GUJARAT
24028,INCLUSIVE RECYCLING FOUNDATION,Recycler,Pending at applicant,Authorization,Plot No C-26 Site - III Meerut Road Industrial Area Ghaziabad Ghaziabad Ghaziabad,Ghaziabad,UTTAR PRADESH
6619,I Seven,Recycler,Pending at applicant,Authorization,"9/4, I SEVEN, KACHOHALLI INDUSTRIAL, KACHOHALLI MAGADI MAIN ROAD  Bangalore Bangalore Rural",Bangalore Rural,KARNATAKA
43706,Ishvarya Traders,Recycler,Pending at applicant,Authorization,"Plot No. 3D1, Bommasandra 1st and 2nd Phase Industrial Area Bommasandra Village, Attibele Hobli, Anekal Taluk Bangalore Bangalore",Bangalore,KARNATAKA
58370,KH E WASTE RECYCLERS,Recycler,Pending at applicant,Authorization,4TH CROSS 1ST FLOOR 104 1ST MAIN ROAD AZEEZ SAIT INDUSTRIAL AREA NAYANDANAHALLI BANGALORE URBAN Bangalore,Bangalore,KARNATAKA
9843,Kohinoor E waste Recycling Pvt Ltd,Recycler,Pending at applicant,Authorization,OPP GURUDATTA WASHING CENTRE GUT NO-205/1 205/2 AT DHEKU TAL-KHALAPUR KHALAPUR Raigarh(MH),Raigarh(MH),MAHARASHTRA
37531,KRV SOLAR,Recycler,Pending at applicant,Authorization,607 6TH FLR MAPLE TRADE CENTRE NR SURDHARA CIRCLE THALTEJ AHMEDABAD Ahmedabad,Ahmedabad,GUJARAT
13934,MALAPANI ANTENNA ELECTRONICS LTD,Recycler,Pending at applicant,Authorization,Plot No D4 Phase -1 IDA Pashamailaram patancheru Sangareddy District patancheruvu Hyderabad,Hyderabad,TELANGANA
2829311,MASSRR e-Neermalya,Recycler,Pending at applicant,Authorization,"Plot No. 306, Ram Mandir Road Near Kailash Nagar, Ambernath (E), Tal. Ambernath Dist. Thane Ambernath Thane",Thane,MAHARASHTRA
1640684,MEGA RECYCLING PRIVATE LIMITED,Recycler,Pending at applicant,Authorization,"PLOT NO-16A, KHASRA NO-434, LAKHAN, DASNA HAPUR  HAPUR Hapur",Hapur,UTTAR PRADESH
8504,MELIORATE LUBES PVT LTD,Recycler,Pending at applicant,Authorization,PLOT NO 1729 KHATA NO 72 VILLAGE - LODHMA CHHATTARMANDU RAMGARH Ramgarh,Ramgarh,JHARKHAND
1323253,Mothiya Brothers,Recycler,Pending at applicant,Authorization,"Karan Kunj, Jagdish Colony, Near Hafed Godown Jind Road Hansi Hisar",Hisar,HARYANA
8095,MS 2nds Computers,Recycler,Pending at applicant,Authorization,"J-71 AND J-72, INDUSTRIAL AREA, IIDC, KOSI KOTWAN, Mathura, Uttar Pradesh, 281403 Mathura, Uttar Pradesh, 281403 MATHURA Mathura",Mathura,UTTAR PRADESH
132,M/S E-WASTE RECYCLERS INDIA,Recycler,Pending at applicant,Authorization,"E-49, UPSIDC INDUSTRIAL AREA, KOSI KOTWAN, Mathura, Uttar Pradesh, 281403  Mathura Mathura",Mathura,UTTAR PRADESH
19644,MUZASHI RECYCLERS PRIVATE LIMITED,Recycler,Pending at applicant,Authorization,KH-355 HUSAINPUR BOPADA KHATAULI UTTAR PRADESH 251203 MUZAFFARNAGAR Muzaffarnagar,Muzaffarnagar,UTTAR PRADESH
9206,NATIONAL TRADING CORPORATION,Recycler,Pending at applicant,Authorization,"6A,,FIRDOS COMPOUND,,KHERANI ROAD,NR.RAHAT HOTEL KURLA WEST,MUMBAI SUBURBAN MUMBAI Thane",Thane,MAHARASHTRA
19511,NAVKAR RECYCLING PRIVATE LIMITED,Recycler,Pending at applicant,Authorization,GROUND Survey number 84 Khanivali Road Wada Shiraspada GROUND Survey number 84 Khanivali Road Wada Shiraspada Palghar Thane,Thane,MAHARASHTRA
6805,New India Organics,Recycler,Pending at applicant,Authorization,Gala No 158 Hissa No 1/A Village Uttarshiv Gotheghar Taluka and District Thane Thane Thane,Thane,MAHARASHTRA
13387,New India Recyclers,Recycler,Pending at applicant,Authorization,"Gat NO. 849/2728, Ambethan Gaon , Plot No-5/6 Tal -Khed Dist- Pune NA Pune Pune",Pune,MAHARASHTRA
275,Ortech India Corporation,Recycler,Pending at applicant,Authorization,Plot no 67 B Lodhi Majra Industrial Area Baddi Solan,Solan,HIMACHAL PRADESH
13779,PRAKASH METAL HOUSE,Recycler,Pending at applicant,Authorization,"GATA NO 243 NEAR RUNKATA POLICE CHOWKI, RUNKATA ARTAUNI AGRA AGRA Agra",Agra,UTTAR PRADESH
9814,PRIVI SPECIALITY CHEMICALS LIMITED,Recycler,Pending at applicant,Authorization,"Plot C-3,4,5,6,7,8,9,6/1,x-9,x10,x11,33/1, MIDC Mahad, MIDC Mahad Mahad Raigarh(MH)",Raigarh(MH),MAHARASHTRA
9125,PUNE ok GREENS ELECTRONIC WASTE RECYCLER PRIVATE LIMITED,Recycler,Pending at applicant,Authorization,S NO 29/9 PANSARE NAGAR YEVALEWADI  TAL HAVELI DIST PUNE Pune,Pune,MAHARASHTRA
28882,RAZA ENTERPRISES,Recycler,Pending at applicant,Authorization,"Sr. No. 124, Shed-A Gate No. 1 Khandve Nagar Pune-Nagar Road Kharadi Pune Tal. Haveli, Dist. Pune 411047 Pune Pune",Pune,MAHARASHTRA
8962,RECYCLE MITRA ECO CARE LLP,Recycler,Pending at applicant,Authorization,"Plot No-A368, Floor No.1, M.H Industries,Road No-26 Wagle Indusrial Estate, Thane, Thane (Municipal Corporation), Thane Mumbai Thane",Thane,MAHARASHTRA
6398,Resource e Waste Solutions Pvt Ltd,Recycler,Pending at applicant,Authorization,H-30 kosi kotwan industrial area Tehsil Chatta Kosikalan Rural Mathura Mathura,Mathura,UTTAR PRADESH
2368777,REWASTO RECYCLING,Recycler,Pending at applicant,Authorization,"PLOT NO. R-4, I.A. SITE-5, GREATER NOIDA  GREATER NOIDA Gautam Buddha Nagar",Gautam Buddha Nagar,UTTAR PRADESH
8869,RKE RECYCLING INTERNATIONAL LLP,Recycler,Pending at applicant,Authorization,"GALA NO 2 , SOLITIORE  BUILDING, TIRUPATI INDUSTRIAL ESTATE SATIVALI ROAD , VASAI  EAST VASAI Thane",Thane,MAHARASHTRA
909808,SACHIN ENTERPRISES,Recycler,Pending at applicant,Authorization,"PRATAPGANJ, 123/751, BLOCK T-74 GADAARIYAN PURWA FAZALGANJ KANPUR Kanpur Nagar",Kanpur Nagar,UTTAR PRADESH
82236,SAHNI ENTERPRISES,Recycler,Pending at applicant,Authorization,"K K NO 228/285, HADBAST NO 645, MOHAL ANJI,  SHAMLECH BAROG BY- PASS, BELOW RAILWAY STATION solan Solan",Solan,HIMACHAL PRADESH
1810077,SARA RECYCLING,Recycler,Pending at applicant,Authorization,"C 12,KUMBALAGOD INDUSTRIAL AREA PHASE 1 KUMBALGOD BENGALURU URBAN C12 KUMBALGOD INDUSTRIAL AREA PHASE 1 KUMBALGOD BENGALURU URBAN BENGALURU Bangalore",Bangalore,KARNATAKA
59352,SHABBIR TRADERS,Recycler,Pending at applicant,Authorization,"Gala No P/16 S. No 121/1 AND 121/2,BALAJI INDUSTRIS PARK, TONDRE VILLAGE MIDC Taloja Road, BEHIND HINDALCO COMPANY, Taloja MIDC, Navi Mumbai, Raigad, Maharashtra, Navi Mumbai Raigarh(MH)",Raigarh(MH),MAHARASHTRA
43277,SHEELTRON DIGITAL SYSTEMS PRIVATE LIMITED,Recycler,Pending at applicant,Authorization,"Site No. 27, Maney Estate, Sy No121, Kumbalgodu Industrial Area Kumbalgudu Taluk, Bangalore Urban Bengaluru Bangalore",Bangalore,KARNATAKA
9479,Shiwshakti Metal Works,Recycler,Pending at applicant,Authorization,Vill - Jaladhulagori PO - Dhulagori PS - Sankrail Dist - Howrah Sankrail Howrah,Howrah,WEST BENGAL
1897809,Shreeram E Waste Recyclers And Traders,Recycler,Pending at applicant,Authorization,"KHARSAM, P.S HATHAURI, NEAR JANKI NAGAR CHOWK , KHARSAM, SAMASTIPUR, BIHAR, 847105  SAMASTIPUR Samastipur",Samastipur,BIHAR
2679387,SHRI RAAM RECYCLING,Recycler,Pending at applicant,Authorization,"952/21, GURUVARAJAKANDIGAI GUMMIDIPOONDI GUMMIDIPOONDI Tiruvallur",Tiruvallur,TAMIL NADU
7945,SIDDHAVI TECH,Recycler,Pending at applicant,Authorization,NH 52 POLT NO A 58 B/H M I D C OFFICE OSMANABAD Osmanabad,Osmanabad,MAHARASHTRA
1283515,SONI RECYCLE COMPABY,Recycler,Pending at applicant,Authorization,VPO SANWAR CHARKHI DADRI  BHIWANI Bhiwani,Bhiwani,HARYANA
14131,SPRECO RECYCLING,Recycler,Pending at applicant,Authorization,"D-45, TEHSIL RAIKOT, INDUSTRIAL FOCAL POINT RAIKOT, LUDHIANA, PUNJAB, 142034 RAIKOT Ludhiana",Ludhiana,PUNJAB
239,Spreco Resource Recyclers,Recycler,Pending at applicant,Authorization,"Khasra No 235, Village Abdulpur Khekada, Baghpat, Baghpat Bagpat",Bagpat,UTTAR PRADESH
753495,SRI BALAJI,Recycler,Pending at applicant,Authorization,"ARAZI NO - 316/7, VIL-KATARIA PARGANA-RALHUPUR CHANDAULI Chandauli",Chandauli,UTTAR PRADESH
15081,STAR RECYCLING,Recycler,Pending at applicant,Authorization,"R K Industrial Zone-09, Plot No.45, Kuwadva-Wankaner Road AT. Ranpur, Tal.Rajkot, Gujarat 360023 RAJKOT RAJKOT Rajkot",Rajkot,GUJARAT
14045,SUN E WASTE RECYCLING CO,Recycler,Pending at applicant,Authorization,"F-163, Kosi Kotwan Extension 1, KOSI KOTWAN, Kosi Kotwan, Mathura, Uttar Pradesh, 281403 Delhi Mathura Mathura",Mathura,UTTAR PRADESH
146,SUNGEEL INDIA RECYCLING PVT LTD,Recycler,Pending at applicant,Authorization,"PLOT NO 59C 59D GOLLAPURAM IP, HINDUPUR Hindupur Ananthapur",Ananthapur,ANDHRA PRADESH
9466,TRISHYIRAYA RECYCLING INDIA PRIVATE LIMITED,Recycler,Pending at applicant,Authorization,"SHED NO. 10, PLOT SW-51, APPAREL PARK INDUSTRIAL AREA BASHETTIHALLI, KASABA HOBLI, DODDABALLAPURA TALUK Bengaluru Bangalore Rural",Bangalore Rural,KARNATAKA
8971,UNIQUE RECYCLING,Recycler,Pending at applicant,Authorization,Gat No 287  Nanekarwadi Tal Khed  Pune Pune,Pune,MAHARASHTRA
6507,Universal Waste Management,Recycler,Pending at applicant,Authorization,B-10 DPK Comp Khairani Rd Sakinaka Mumbai Mumbai,Mumbai,MAHARASHTRA
154,URBAN METALS,Recycler,Pending at applicant,Authorization,E-2118 Ramchandrapura RIICO Industrial Area Sitapura Jaipur Sanganer Jaipur JAIPUR Jaipur,Jaipur,RAJASTHAN
254,USH INDIA RECYCLER PVT LTD,Recycler,Pending at applicant,Authorization,PLOT NO 4-5 BARUN INDUSTRY AREA ARUNGABAD BARUN Aurangabad(BH),Aurangabad(BH),BIHAR
2826170,VIABLE E-WASTE RECYCLER PRIVATE LIMITED,Recycler,Pending at applicant,Authorization,"Structure Plot no. K-38, Situated At Village Begrajpur Industrial Area Tehsil Khatauli MZN Khanupur Muzaffarnagar",Muzaffarnagar,UTTAR PRADESH
229,VICTORY RECOVERY RECYCLE TECHNOLOGIES INDIA PRIVATE LIMITED,Recycler,Pending at applicant,Authorization,"1, DOUBLE DRAGON INDUSTRIAL PARK, KANNUR POST,KOTTAIYUR TIRUVALLUR Tiruvallur",Tiruvallur,TAMIL NADU
